STARLINK-35620          
1 66474U 25262U   25336.83336806 -.02055989  00000+0 -25426-1 0  9999
2 66474  42.9999 129.1197 0001567 282.0406 118.9355 15.62739224  4043
STARLINK-35538          
1 66475U 25262V   25336.83336806 -.02054883  00000+0 -25411-1 0  9996
2 66475  42.9996 129.1155 0001713 281.9256 120.9694 15.62737037  4048
STARLINK-35372          
1 66476U 25262W   25336.83336806 -.02045578  00000+0 -25284-1 0  9996
2 66476  42.9996 129.1103 0001646 284.3941 120.4157 15.62733028  3937
STARLINK-35354          
1 66477U 25262X   25336.83336806 -.02060961  00000+0 -25494-1 0  9993
2 66477  42.9998 129.0999 0001602 287.7787 120.8664 15.62740967  4049
STARLINK-35283          
1 66478U 25262Y   25336.83336806 -.02044880  00000+0 -25275-1 0  9993
2 66478  42.9999 129.0948 0001645 282.0456 128.5162 15.62732392  4044
STARLINK-35581          
1 66479U 25262Z   25336.83336806 -.02067209  00000+0 -25577-1 0  9999
2 66479  42.9997 129.1043 0001671 287.2800 119.4445 15.62746464  4047
STARLINK-35670          
1 66480U 25262AA  25336.83336806 -.02053647  00000+0 -25396-1 0  9991
2 66480  42.9999 129.0896 0001653 284.0778 128.4051 15.62735046  4042
STARLINK-35698          
1 66481U 25262AB  25336.83336806 -.02053636  00000+0 -25394-1 0  9998
2 66481  42.9999 129.0846 0001586 285.3260 129.0698 15.62737501  4045
STARLINK-35648          
1 66482U 25262AC  25336.83336806 -.02052240  00000+0 -25376-1 0  9999
2 66482  42.9997 129.0801 0001561 286.4835 129.8304 15.62736044  3882
STARLINK-35654          
1 66483U 25262AD  25336.83336806 -.02072936  00000+0 -25656-1 0  9995
2 66483  42.9996 129.0743 0001530 285.7898 132.4389 15.62749654  4047
STARLINK-35371          
1 66484U 25262AE  25336.83336806 -.02043569  00000+0 -25258-1 0  9994
2 66484  42.9997 129.0706 0001581 285.3789 134.7696 15.62730921  4042
STARLINK-34774          
1 66485U 25263A   25336.83336806 -.01989752  00000+0 -15185-1 0  9996
2 66485  42.9986 183.6803 0001511 285.3123 199.4579 15.74220028  4043
